[{"OBJECT_NAME":"WEILAI 1R","OBJECT_ID":"2019-093F","EPOCH":"2026-03-09T22:33:48.244608","MEAN_MOTION":14.997592,"ECCENTRICITY":0.00116762,"INCLINATION":97.7939,"RA_OF_ASC_NODE":158.7373,"ARG_OF_PERICENTER":23.5076,"MEAN_ANOMALY":336.6679,"EPHEMERIS_TYPE":0,"CLASSIFICATION_TYPE":"U","NORAD_CAT_ID":44884,"ELEMENT_SET_NO":999,"REV_AT_EPOCH":33754,"BSTAR":0.00050142794,"MEAN_MOTION_DOT":6.146e-5,"MEAN_MOTION_DDOT":0},{"OBJECT_NAME":"STARLINK-32913","OBJECT_ID":"2025-037X","EPOCH":"2026-03-09T21:21:27.156096","MEAN_MOTION":14.98330525,"ECCENTRICITY":0.0002619,"INCLINATION":70.0039,"RA_OF_ASC_NODE":353.8791,"ARG_OF_PERICENTER":266.0186,"MEAN_ANOMALY":94.0674,"EPHEMERIS_TYPE":0,"CLASSIFICATION_TYPE":"U","NORAD_CAT_ID":63098,"ELEMENT_SET_NO":999,"REV_AT_EPOCH":5864,"BSTAR":0.00067472314,"MEAN_MOTION_DOT":7.967e-5,"MEAN_MOTION_DDOT":0}]
